{"type":"FeatureCollection","features":[{"type":"Feature","properties":{"name":"广西壮族自治区"},"geometry":{"type":"Polygon","coordinates":[[[104.5,24.7],[104.7,24.6],[105.2,25.0],[106.0,24.7],[106.2,24.8],[106.2,25.0],[106.9,25.2],[107.1,25.3],[107.0,25.5],[107.2,25.6],[107.5,25.2],[107.8,25.2],[107.8,25.1],[108.1,25.2],[108.2,25.4],[108.4,25.5],[108.6,25.3],[108.6,25.6],[109.1,25.5],[109.0,25.8],[109.3,25.7],[109.5,26.0],[109.8,25.9],[110.0,26.2],[110.2,26.0],[110.6,26.3],[111.2,26.3],[111.3,26.2],[111.3,25.9],[111.4,25.8],[111.0,25.0],[111.1,25.0],[111.4,25.1],[111.5,24.7],[111.7,24.8],[112.1,24.7],[111.9,24.7],[112.1,24.3],[111.9,24.2],[111.9,24.0],[111.8,23.8],[111.6,23.8],[111.6,23.7],[111.4,23.5],[111.4,23.0],[111.3,22.8],[110.7,22.5],[110.7,22.3],[110.7,22.1],[110.3,22.1],[110.3,21.9],[110.0,21.8],[109.9,21.7],[109.8,21.6],[109.8,21.4],[109.6,21.4],[109.2,21.4],[109.2,20.9],[109.1,21.0],[109.1,21.5],[108.7,21.5],[108.6,21.7],[108.3,21.5],[107.8,21.6],[107.4,21.6],[107.1,21.8],[107.1,21.9],[106.7,22.0],[106.6,22.4],[106.8,22.8],[106.7,22.9],[105.9,22.9],[105.6,23.1],[105.6,23.2],[105.6,23.4],[106.2,23.6],[106.2,23.8],[106.0,24.1],[105.6,24.1],[105.5,24.0],[105.2,24.1],[105.0,24.4],[104.8,24.5],[104.7,24.3],[104.5,24.7]]]}},{"type":"Feature","properties":{"name":"辽宁省"},"geometry":{"type":"Polygon","coordinates":[[[119.3,41.3],[119.4,41.6],[119.3,41.7],[119.4,42.3],[119.5,42.4],[119.9,42.2],[120.1,41.7],[120.5,42.1],[121.5,42.5],[121.7,42.5],[122.0,42.7],[122.3,42.7],[122.3,42.8],[122.8,42.7],[123.1,42.8],[123.3,43.0],[123.6,43.0],[123.7,43.4],[123.8,43.5],[124.3,43.2],[124.5,42.8],[124.7,43.1],[124.9,43.1],[124.9,42.8],[125.3,42.1],[125.4,42.1],[125.3,42.0],[125.3,41.7],[125.8,41.2],[125.6,40.9],[125.7,40.9],[124.5,40.2],[124.1,39.7],[123.4,39.7],[123.1,39.4],[123.1,39.0],[122.1,39.0],[121.6,38.7],[121.1,38.7],[120.9,39.0],[121.4,39.2],[121.2,39.6],[122.1,40.4],[122.0,40.7],[121.7,40.8],[121.2,40.8],[120.6,40.2],[119.9,39.9],[119.7,40.1],[119.5,40.6],[119.3,40.5],[118.8,40.8],[119.3,41.3]]]}},{"type":"Feature","properties":{"name":"浙江省"},"geometry":{"type":"Polygon","coordinates":[[[118.2,29.4],[118.7,29.7],[118.9,30.0],[118.9,30.3],[119.4,30.4],[119.3,30.6],[119.4,30.7],[119.6,31.1],[119.6,31.1],[120.0,31.2],[120.5,30.8],[120.9,31.0],[121.3,30.7],[122.0,30.8],[122.7,30.9],[122.9,30.7],[123.0,30.1],[122.6,30.1],[122.6,29.9],[122.2,29.5],[122.3,28.9],[122.0,28.9],[122.0,28.4],[121.7,28.3],[121.7,28.2],[121.5,28.2],[121.6,28.0],[121.3,27.9],[121.1,27.4],[120.7,27.3],[120.7,27.2],[120.9,27.0],[120.8,27.0],[120.4,27.2],[120.2,27.4],[119.8,27.3],[119.6,27.7],[119.3,27.4],[118.9,27.5],[118.7,28.0],[118.8,28.3],[118.5,28.3],[118.5,28.3],[118.4,28.8],[118.0,29.0],[118.0,29.2],[118.2,29.4]]]}},{"type":"Feature","properties":{"name":"江苏省"},"geometry":{"type":"Polygon","coordinates":[[[116.4,34.6],[116.5,34.9],[116.8,34.9],[117.2,34.5],[117.3,34.6],[117.6,34.5],[117.9,34.7],[118.1,34.6],[118.2,34.4],[118.4,34.4],[118.5,34.7],[118.7,34.7],[118.9,35.0],[119.3,35.1],[119.4,35.0],[119.4,34.8],[119.7,34.6],[120.3,34.4],[120.9,33.0],[121.0,32.7],[121.4,32.5],[121.5,32.2],[121.9,32.0],[122.0,31.7],[122.0,31.6],[121.2,31.9],[121.1,31.7],[121.4,31.5],[121.2,31.5],[120.9,31.0],[120.5,30.8],[120.0,31.2],[119.6,31.1],[119.4,31.2],[119.4,31.3],[118.8,31.2],[118.7,31.4],[118.9,31.6],[118.4,31.9],[118.5,32.2],[118.7,32.2],[118.6,32.6],[119.2,32.5],[119.2,32.8],[118.9,33.0],[118.7,32.7],[118.3,32.8],[118.2,33.2],[118.0,33.1],[117.9,33.2],[118.1,33.8],[117.8,33.7],[117.6,34.0],[117.2,34.1],[116.9,34.4],[116.4,34.6]]]}},{"type":"Feature","properties":{"name":"北京市"},"geometry":{"type":"Polygon","coordinates":[[[117.4,40.2],[117.3,40.1],[117.2,40.1],[116.8,40.0],[116.9,39.8],[116.9,39.7],[116.8,39.6],[116.5,39.6],[116.4,39.5],[116.2,39.6],[115.8,39.5],[115.5,39.6],[115.4,39.9],[115.9,40.3],[115.8,40.6],[116.1,40.6],[116.2,40.8],[116.5,40.8],[116.4,40.9],[116.6,41.0],[117.0,40.7],[117.4,40.6],[117.2,40.5],[117.4,40.2]]]}},{"type":"Feature","properties":{"name":"上海市"},"geometry":{"type":"Polygon","coordinates":[[[120.9,31.0],[121.2,31.5],[121.4,31.5],[121.1,31.7],[121.2,31.9],[122.0,31.6],[121.9,31.2],[122.0,30.8],[121.3,30.7],[120.9,31.0]]]}},{"type":"Feature","properties":{"name":"香港特别行政区"},"geometry":{"type":"Polygon","coordinates":[[[114.6,22.4],[114.5,22.1],[114.3,22.1],[113.9,22.1],[113.8,22.2],[113.9,22.4],[114.2,22.5],[114.3,22.5],[114.4,22.5],[114.4,22.4],[114.6,22.4]]]}},{"type":"Feature","properties":{"name":"澳门特别行政区"},"geometry":{"type":"Polygon","coordinates":[[[113.6,22.2],[113.6,22.1],[113.6,22.1],[113.5,22.2],[113.6,22.2],[113.6,22.2]]]}}]}