{"type":"FeatureCollection","features":[{"type":"Feature","properties":{"name":"California"},"geometry":{"type":"Polygon","coordinates":[[[-123.2,42.0],[-122.4,42.0],[-121.0,42.0],[-120.0,42.0],[-120.0,40.3],[-120.0,39.0],[-118.7,38.1],[-117.5,37.2],[-116.5,36.5],[-115.9,36.0],[-114.6,35.0],[-114.6,34.9],[-114.5,34.7],[-114.3,34.4],[-114.1,34.3],[-114.3,34.2],[-114.4,34.1],[-114.5,33.9],[-114.5,33.7],[-114.5,33.5],[-114.7,33.4],[-114.7,33.0],[-114.5,33.0],[-114.5,32.8],[-114.5,32.8],[-114.7,32.7],[-116.0,32.6],[-117.1,32.5],[-117.2,32.7],[-117.3,32.9],[-117.3,33.1],[-117.5,33.3],[-117.8,33.5],[-118.2,33.8],[-118.3,33.7],[-118.4,33.7],[-118.4,33.8],[-118.6,34.0],[-118.8,34.0],[-119.2,34.1],[-119.3,34.3],[-119.6,34.4],[-119.9,34.4],[-120.1,34.5],[-120.5,34.4],[-120.6,34.6],[-120.6,34.9],[-120.7,34.9],[-120.6,35.1],[-120.9,35.2],[-120.9,35.5],[-121.0,35.5],[-121.2,35.6],[-121.3,35.7],[-121.3,35.8],[-121.7,36.2],[-121.9,36.3],[-121.9,36.6],[-121.9,36.6],[-121.8,36.8],[-121.9,37.0],[-122.1,37.0],[-122.3,37.1],[-122.4,37.2],[-122.4,37.4],[-122.5,37.5],[-122.5,37.8],[-122.3,37.8],[-122.4,38.2],[-122.5,38.1],[-122.5,37.9],[-122.7,37.9],[-122.9,38.0],[-123.0,38.3],[-123.1,38.5],[-123.3,38.6],[-123.4,38.7],[-123.7,39.0],[-123.7,39.0],[-123.8,39.4],[-123.8,39.6],[-123.9,39.8],[-124.1,40.1],[-124.4,40.3],[-124.4,40.4],[-124.2,40.9],[-124.1,41.0],[-124.2,41.1],[-124.1,41.4],[-124.1,41.7],[-124.3,41.8],[-124.2,42.0],[-123.2,42.0]]]}},{"type":"Feature","properties":{"name":"North Carolina"},"geometry":{"type":"Polygon","coordinates":[[[-81.0,36.6],[-80.3,36.5],[-79.5,36.5],[-75.9,36.6],[-75.8,36.2],[-76.0,36.2],[-76.1,36.1],[-76.4,36.1],[-76.5,36.0],[-76.7,36.0],[-76.7,35.9],[-76.4,36.0],[-76.4,35.9],[-76.1,36.0],[-76.0,35.9],[-75.8,35.9],[-75.7,35.7],[-75.8,35.6],[-75.9,35.6],[-76.1,35.3],[-76.5,35.3],[-76.5,35.1],[-76.4,35.0],[-76.3,34.9],[-76.5,34.7],[-76.7,34.7],[-77.0,34.7],[-77.2,34.6],[-77.6,34.4],[-77.8,34.2],[-78.0,33.8],[-78.2,33.9],[-78.5,33.9],[-79.7,34.8],[-80.8,34.8],[-80.8,34.9],[-80.9,35.1],[-81.0,35.0],[-81.0,35.1],[-82.3,35.2],[-82.6,35.2],[-82.8,35.1],[-83.1,35.0],[-83.6,35.0],[-84.3,35.0],[-84.3,35.2],[-84.1,35.2],[-84.0,35.4],[-83.8,35.6],[-83.5,35.6],[-83.3,35.7],[-83.0,35.8],[-82.8,36.0],[-82.6,36.1],[-82.6,36.0],[-82.2,36.2],[-82.0,36.1],[-81.9,36.3],[-81.7,36.4],[-81.7,36.6],[-81.0,36.6]]]}},{"type":"Feature","properties":{"name":"Wyoming"},"geometry":{"type":"Polygon","coordinates":[[[-109.1,45.0],[-105.9,45.0],[-104.1,45.0],[-104.1,43.0],[-104.1,41.0],[-105.7,41.0],[-107.9,41.0],[-109.0,41.0],[-111.0,41.0],[-111.0,42.0],[-111.0,44.5],[-111.1,45.0],[-109.1,45.0]]]}}]}